[{"OBJECT_NAME":"STARLINK-5275","OBJECT_ID":"2023-014H","EPOCH":"2026-03-09T09:42:39.733920","MEAN_MOTION":14.98327145,"ECCENTRICITY":0.00031214,"INCLINATION":69.9993,"RA_OF_ASC_NODE":65.138,"ARG_OF_PERICENTER":271.4809,"MEAN_ANOMALY":88.5992,"EPHEMERIS_TYPE":0,"CLASSIFICATION_TYPE":"U","NORAD_CAT_ID":55398,"ELEMENT_SET_NO":999,"REV_AT_EPOCH":17201,"BSTAR":-4.3557532e-5,"MEAN_MOTION_DOT":-6.13e-6,"MEAN_MOTION_DDOT":0},{"OBJECT_NAME":"KUIPER-00050","OBJECT_ID":"2025-134L","EPOCH":"2026-03-09T16:37:17.406912","MEAN_MOTION":14.97208204,"ECCENTRICITY":0.00043267,"INCLINATION":51.8888,"RA_OF_ASC_NODE":211.9413,"ARG_OF_PERICENTER":323.7107,"MEAN_ANOMALY":36.3569,"EPHEMERIS_TYPE":0,"CLASSIFICATION_TYPE":"U","NORAD_CAT_ID":64510,"ELEMENT_SET_NO":999,"REV_AT_EPOCH":4037,"BSTAR":0.00054272515,"MEAN_MOTION_DOT":6.094e-5,"MEAN_MOTION_DDOT":0}]
